<?xml version="1.0" encoding="UTF-8"?>
<ndm xmlns:xsi="http://www.w3.org/2001/XMLSchema-instance" xsi:noNamespaceSchemaLocation="https://sanaregistry.org/r/ndmxml_unqualified/ndmxml-2.0.0-master-2.0.xsd">
<omm id="CCSDS_OMM_VERS" version="2.0">
<header><CREATION_DATE/><ORIGINATOR/></header><body><segment><metadata><OBJECT_NAME>ORBCOMM FM103 [+]</OBJECT_NAME><OBJECT_ID>2014-040F</OBJECT_ID><CENTER_NAME>EARTH</CENTER_NAME><REF_FRAME>TEME</REF_FRAME><TIME_SYSTEM>UTC</TIME_SYSTEM><MEAN_ELEMENT_THEORY>SGP4</MEAN_ELEMENT_THEORY></metadata><data><meanElements><EPOCH>2023-12-31T01:12:09.347616</EPOCH><MEAN_MOTION>14.56173570</MEAN_MOTION><ECCENTRICITY>.0002453</ECCENTRICITY><INCLINATION>47.0075</INCLINATION><RA_OF_ASC_NODE>16.2365</RA_OF_ASC_NODE><ARG_OF_PERICENTER>327.9744</ARG_OF_PERICENTER><MEAN_ANOMALY>32.0992</MEAN_ANOMALY></meanElements><tleParameters><EPHEMERIS_TYPE>0</EPHEMERIS_TYPE><CLASSIFICATION_TYPE>U</CLASSIFICATION_TYPE><NORAD_CAT_ID>40091</NORAD_CAT_ID><ELEMENT_SET_NO>999</ELEMENT_SET_NO><REV_AT_EPOCH>50326</REV_AT_EPOCH><BSTAR>.21934E-3</BSTAR><MEAN_MOTION_DOT>.811E-5</MEAN_MOTION_DOT><MEAN_MOTION_DDOT>0</MEAN_MOTION_DDOT></tleParameters></data></segment></body></omm>
<omm id="CCSDS_OMM_VERS" version="2.0">
<header><CREATION_DATE/><ORIGINATOR/></header><body><segment><metadata><OBJECT_NAME>ORBCOMM FM114 [+]</OBJECT_NAME><OBJECT_ID>2015-081A</OBJECT_ID><CENTER_NAME>EARTH</CENTER_NAME><REF_FRAME>TEME</REF_FRAME><TIME_SYSTEM>UTC</TIME_SYSTEM><MEAN_ELEMENT_THEORY>SGP4</MEAN_ELEMENT_THEORY></metadata><data><meanElements><EPOCH>2023-12-31T03:40:37.449408</EPOCH><MEAN_MOTION>14.56209635</MEAN_MOTION><ECCENTRICITY>.0001622</ECCENTRICITY><INCLINATION>47.0033</INCLINATION><RA_OF_ASC_NODE>285.0790</RA_OF_ASC_NODE><ARG_OF_PERICENTER>33.0565</ARG_OF_PERICENTER><MEAN_ANOMALY>327.0421</MEAN_ANOMALY></meanElements><tleParameters><EPHEMERIS_TYPE>0</EPHEMERIS_TYPE><CLASSIFICATION_TYPE>U</CLASSIFICATION_TYPE><NORAD_CAT_ID>41179</NORAD_CAT_ID><ELEMENT_SET_NO>999</ELEMENT_SET_NO><REV_AT_EPOCH>42663</REV_AT_EPOCH><BSTAR>.30786E-3</BSTAR><MEAN_MOTION_DOT>.1207E-4</MEAN_MOTION_DOT><MEAN_MOTION_DDOT>0</MEAN_MOTION_DDOT></tleParameters></data></segment></body></omm>
<omm id="CCSDS_OMM_VERS" version="2.0">
<header><CREATION_DATE/><ORIGINATOR/></header><body><segment><metadata><OBJECT_NAME>ORBCOMM FM119 [-]</OBJECT_NAME><OBJECT_ID>2015-081B</OBJECT_ID><CENTER_NAME>EARTH</CENTER_NAME><REF_FRAME>TEME</REF_FRAME><TIME_SYSTEM>UTC</TIME_SYSTEM><MEAN_ELEMENT_THEORY>SGP4</MEAN_ELEMENT_THEORY></metadata><data><meanElements><EPOCH>2023-12-30T21:58:37.639488</EPOCH><MEAN_MOTION>14.56162234</MEAN_MOTION><ECCENTRICITY>.0001219</ECCENTRICITY><INCLINATION>46.9985</INCLINATION><RA_OF_ASC_NODE>195.3894</RA_OF_ASC_NODE><ARG_OF_PERICENTER>140.1839</ARG_OF_PERICENTER><MEAN_ANOMALY>219.9135</MEAN_ANOMALY></meanElements><tleParameters><EPHEMERIS_TYPE>0</EPHEMERIS_TYPE><CLASSIFICATION_TYPE>U</CLASSIFICATION_TYPE><NORAD_CAT_ID>41180</NORAD_CAT_ID><ELEMENT_SET_NO>999</ELEMENT_SET_NO><REV_AT_EPOCH>42780</REV_AT_EPOCH><BSTAR>.17315E-3</BSTAR><MEAN_MOTION_DOT>.605E-5</MEAN_MOTION_DOT><MEAN_MOTION_DDOT>0</MEAN_MOTION_DDOT></tleParameters></data></segment></body></omm>
<omm id="CCSDS_OMM_VERS" version="2.0">
<header><CREATION_DATE/><ORIGINATOR/></header><body><segment><metadata><OBJECT_NAME>ORBCOMM FM105 [-]</OBJECT_NAME><OBJECT_ID>2015-081C</OBJECT_ID><CENTER_NAME>EARTH</CENTER_NAME><REF_FRAME>TEME</REF_FRAME><TIME_SYSTEM>UTC</TIME_SYSTEM><MEAN_ELEMENT_THEORY>SGP4</MEAN_ELEMENT_THEORY></metadata><data><meanElements><EPOCH>2023-12-31T10:46:39.865728</EPOCH><MEAN_MOTION>14.44162949</MEAN_MOTION><ECCENTRICITY>.0001289</ECCENTRICITY><INCLINATION>47.0000</INCLINATION><RA_OF_ASC_NODE>147.9037</RA_OF_ASC_NODE><ARG_OF_PERICENTER>100.5380</ARG_OF_PERICENTER><MEAN_ANOMALY>259.5645</MEAN_ANOMALY></meanElements><tleParameters><EPHEMERIS_TYPE>0</EPHEMERIS_TYPE><CLASSIFICATION_TYPE>U</CLASSIFICATION_TYPE><NORAD_CAT_ID>41181</NORAD_CAT_ID><ELEMENT_SET_NO>999</ELEMENT_SET_NO><REV_AT_EPOCH>42368</REV_AT_EPOCH><BSTAR>.16116E-3</BSTAR><MEAN_MOTION_DOT>.4E-5</MEAN_MOTION_DOT><MEAN_MOTION_DDOT>0</MEAN_MOTION_DDOT></tleParameters></data></segment></body></omm>
<omm id="CCSDS_OMM_VERS" version="2.0">
<header><CREATION_DATE/><ORIGINATOR/></header><body><segment><metadata><OBJECT_NAME>ORBCOMM FM110 [+]</OBJECT_NAME><OBJECT_ID>2015-081D</OBJECT_ID><CENTER_NAME>EARTH</CENTER_NAME><REF_FRAME>TEME</REF_FRAME><TIME_SYSTEM>UTC</TIME_SYSTEM><MEAN_ELEMENT_THEORY>SGP4</MEAN_ELEMENT_THEORY></metadata><data><meanElements><EPOCH>2023-12-30T22:10:56.747424</EPOCH><MEAN_MOTION>14.56218319</MEAN_MOTION><ECCENTRICITY>.0002067</ECCENTRICITY><INCLINATION>47.0016</INCLINATION><RA_OF_ASC_NODE>285.5738</RA_OF_ASC_NODE><ARG_OF_PERICENTER>261.3761</ARG_OF_PERICENTER><MEAN_ANOMALY>98.6890</MEAN_ANOMALY></meanElements><tleParameters><EPHEMERIS_TYPE>0</EPHEMERIS_TYPE><CLASSIFICATION_TYPE>U</CLASSIFICATION_TYPE><NORAD_CAT_ID>41182</NORAD_CAT_ID><ELEMENT_SET_NO>999</ELEMENT_SET_NO><REV_AT_EPOCH>42660</REV_AT_EPOCH><BSTAR>.31595E-3</BSTAR><MEAN_MOTION_DOT>.1243E-4</MEAN_MOTION_DOT><MEAN_MOTION_DDOT>0</MEAN_MOTION_DDOT></tleParameters></data></segment></body></omm>
<omm id="CCSDS_OMM_VERS" version="2.0">
<header><CREATION_DATE/><ORIGINATOR/></header><body><segment><metadata><OBJECT_NAME>ORBCOMM FM118 [+]</OBJECT_NAME><OBJECT_ID>2015-081E</OBJECT_ID><CENTER_NAME>EARTH</CENTER_NAME><REF_FRAME>TEME</REF_FRAME><TIME_SYSTEM>UTC</TIME_SYSTEM><MEAN_ELEMENT_THEORY>SGP4</MEAN_ELEMENT_THEORY></metadata><data><meanElements><EPOCH>2023-12-30T21:38:17.668896</EPOCH><MEAN_MOTION>14.56213368</MEAN_MOTION><ECCENTRICITY>.0002179</ECCENTRICITY><INCLINATION>47.0030</INCLINATION><RA_OF_ASC_NODE>285.9615</RA_OF_ASC_NODE><ARG_OF_PERICENTER>255.1487</ARG_OF_PERICENTER><MEAN_ANOMALY>104.9156</MEAN_ANOMALY></meanElements><tleParameters><EPHEMERIS_TYPE>0</EPHEMERIS_TYPE><CLASSIFICATION_TYPE>U</CLASSIFICATION_TYPE><NORAD_CAT_ID>41183</NORAD_CAT_ID><ELEMENT_SET_NO>999</ELEMENT_SET_NO><REV_AT_EPOCH>42660</REV_AT_EPOCH><BSTAR>.31772E-3</BSTAR><MEAN_MOTION_DOT>.1251E-4</MEAN_MOTION_DOT><MEAN_MOTION_DDOT>0</MEAN_MOTION_DDOT></tleParameters></data></segment></body></omm>
<omm id="CCSDS_OMM_VERS" version="2.0">
<header><CREATION_DATE/><ORIGINATOR/></header><body><segment><metadata><OBJECT_NAME>ORBCOMM FM113 [+]</OBJECT_NAME><OBJECT_ID>2015-081G</OBJECT_ID><CENTER_NAME>EARTH</CENTER_NAME><REF_FRAME>TEME</REF_FRAME><TIME_SYSTEM>UTC</TIME_SYSTEM><MEAN_ELEMENT_THEORY>SGP4</MEAN_ELEMENT_THEORY></metadata><data><meanElements><EPOCH>2023-12-30T15:57:04.129632</EPOCH><MEAN_MOTION>14.56162739</MEAN_MOTION><ECCENTRICITY>.0001085</ECCENTRICITY><INCLINATION>46.9988</INCLINATION><RA_OF_ASC_NODE>196.0557</RA_OF_ASC_NODE><ARG_OF_PERICENTER>153.9550</ARG_OF_PERICENTER><MEAN_ANOMALY>206.1389</MEAN_ANOMALY></meanElements><tleParameters><EPHEMERIS_TYPE>0</EPHEMERIS_TYPE><CLASSIFICATION_TYPE>U</CLASSIFICATION_TYPE><NORAD_CAT_ID>41185</NORAD_CAT_ID><ELEMENT_SET_NO>999</ELEMENT_SET_NO><REV_AT_EPOCH>42769</REV_AT_EPOCH><BSTAR>.24194E-3</BSTAR><MEAN_MOTION_DOT>.911E-5</MEAN_MOTION_DOT><MEAN_MOTION_DDOT>0</MEAN_MOTION_DDOT></tleParameters></data></segment></body></omm>

</ndm>
