ORBCOMM FM103 [+]       
1 40091U 14040F   23365.05010819  .00000811  00000+0  21934-3 0  9997
2 40091  47.0075  16.2365 0002453 327.9744  32.0992 14.56173570503262
ORBCOMM FM114 [+]       
1 41179U 15081A   23365.15321122  .00001207  00000+0  30786-3 0  9999
2 41179  47.0033 285.0790 0001622  33.0565 327.0421 14.56209635426636
ORBCOMM FM119 [-]       
1 41180U 15081B   23364.91571342  .00000605  00000+0  17315-3 0  9999
2 41180  46.9985 195.3894 0001219 140.1839 219.9135 14.56162234427800
ORBCOMM FM105 [-]       
1 41181U 15081C   23365.44907252  .00000400  00000+0  16116-3 0  9993
2 41181  47.0000 147.9037 0001289 100.5380 259.5645 14.44162949423689
ORBCOMM FM110 [+]       
1 41182U 15081D   23364.92426791  .00001243  00000+0  31595-3 0  9994
2 41182  47.0016 285.5738 0002067 261.3761  98.6890 14.56218319426603
ORBCOMM FM118 [+]       
1 41183U 15081E   23364.90159339  .00001251  00000+0  31772-3 0  9990
2 41183  47.0030 285.9615 0002179 255.1487 104.9156 14.56213368426603
ORBCOMM FM113 [+]       
1 41185U 15081G   23364.66463113  .00000911  00000+0  24194-3 0  9995
2 41185  46.9988 196.0557 0001085 153.9550 206.1389 14.56162739427691
